CCSDS_OMM_VERS = 2.0
CREATION_DATE  = 
ORIGINATOR     = 

OBJECT_NAME    = COSMOS 1933
OBJECT_ID      = 1988-020A
CENTER_NAME    = EARTH
REF_FRAME      = TEME
TIME_SYSTEM    = UTC
MEAN_ELEMENT_THEORY = SGP/SGP4

EPOCH          = 2026-03-01T00:32:36.072672
MEAN_MOTION    = 15.17890569
ECCENTRICITY   = .000316
INCLINATION    = 82.5096
RA_OF_ASC_NODE = 259.4893
ARG_OF_PERICENTER = 214.8229
MEAN_ANOMALY   = 145.2799

EPHEMERIS_TYPE = 0
CLASSIFICATION_TYPE = U
NORAD_CAT_ID   = 18958
ELEMENT_SET_NO = 999
REV_AT_EPOCH   = 4891
BSTAR          = .24156193E-3
MEAN_MOTION_DOT = .4924E-4
MEAN_MOTION_DDOT = 0

CCSDS_OMM_VERS = 2.0
CREATION_DATE  = 
ORIGINATOR     = 

OBJECT_NAME    = SL-3 R/B
OBJECT_ID      = 1988-032B
CENTER_NAME    = EARTH
REF_FRAME      = TEME
TIME_SYSTEM    = UTC
MEAN_ELEMENT_THEORY = SGP/SGP4

EPOCH          = 2026-03-01T05:44:48.620832
MEAN_MOTION    = 15.19786948
ECCENTRICITY   = .0024079
INCLINATION    = 97.5172
RA_OF_ASC_NODE = 43.5215
ARG_OF_PERICENTER = 263.2553
MEAN_ANOMALY   = 96.5941

EPHEMERIS_TYPE = 0
CLASSIFICATION_TYPE = U
NORAD_CAT_ID   = 19046
ELEMENT_SET_NO = 999
REV_AT_EPOCH   = 5082
BSTAR          = .31551388E-3
MEAN_MOTION_DOT = .6735E-4
MEAN_MOTION_DDOT = 0

CCSDS_OMM_VERS = 2.0
CREATION_DATE  = 
ORIGINATOR     = 

OBJECT_NAME    = SL-16 R/B
OBJECT_ID      = 1988-039B
CENTER_NAME    = EARTH
REF_FRAME      = TEME
TIME_SYSTEM    = UTC
MEAN_ELEMENT_THEORY = SGP/SGP4

EPOCH          = 2026-03-01T07:31:17.740992
MEAN_MOTION    = 14.19614893
ECCENTRICITY   = .00222599
INCLINATION    = 71.0128
RA_OF_ASC_NODE = 86.2611
ARG_OF_PERICENTER = 346.7701
MEAN_ANOMALY   = 13.2837

EPHEMERIS_TYPE = 0
CLASSIFICATION_TYPE = U
NORAD_CAT_ID   = 19120
ELEMENT_SET_NO = 999
REV_AT_EPOCH   = 95719
BSTAR          = .10610348E-3
MEAN_MOTION_DOT = .176E-5
MEAN_MOTION_DDOT = 0

CCSDS_OMM_VERS = 2.0
CREATION_DATE  = 
ORIGINATOR     = 

OBJECT_NAME    = COSMOS 1953
OBJECT_ID      = 1988-050A
CENTER_NAME    = EARTH
REF_FRAME      = TEME
TIME_SYSTEM    = UTC
MEAN_ELEMENT_THEORY = SGP/SGP4

EPOCH          = 2026-03-01T07:28:01.399584
MEAN_MOTION    = 15.28341477
ECCENTRICITY   = .00121453
INCLINATION    = 82.5112
RA_OF_ASC_NODE = 166.6702
ARG_OF_PERICENTER = 149.6086
MEAN_ANOMALY   = 210.5860

EPHEMERIS_TYPE = 0
CLASSIFICATION_TYPE = U
NORAD_CAT_ID   = 19210
ELEMENT_SET_NO = 999
REV_AT_EPOCH   = 3650
BSTAR          = .37128569E-3
MEAN_MOTION_DOT = .10302E-3
MEAN_MOTION_DDOT = 0

CCSDS_OMM_VERS = 2.0
CREATION_DATE  = 
ORIGINATOR     = 

OBJECT_NAME    = SL-8 R/B
OBJECT_ID      = 1988-053B
CENTER_NAME    = EARTH
REF_FRAME      = TEME
TIME_SYSTEM    = UTC
MEAN_ELEMENT_THEORY = SGP/SGP4

EPOCH          = 2026-03-01T07:32:55.907808
MEAN_MOTION    = 14.38909853
ECCENTRICITY   = .00211907
INCLINATION    = 74.0471
RA_OF_ASC_NODE = 127.9041
ARG_OF_PERICENTER = 308.4746
MEAN_ANOMALY   = 117.9922

EPHEMERIS_TYPE = 0
CLASSIFICATION_TYPE = U
NORAD_CAT_ID   = 19257
ELEMENT_SET_NO = 999
REV_AT_EPOCH   = 97539
BSTAR          = .96181663E-4
MEAN_MOTION_DOT = .271E-5
MEAN_MOTION_DDOT = 0

CCSDS_OMM_VERS = 2.0
CREATION_DATE  = 
ORIGINATOR     = 

OBJECT_NAME    = COSMOS 1975
OBJECT_ID      = 1988-093A
CENTER_NAME    = EARTH
REF_FRAME      = TEME
TIME_SYSTEM    = UTC
MEAN_ELEMENT_THEORY = SGP/SGP4

EPOCH          = 2026-03-01T06:38:47.749056
MEAN_MOTION    = 15.27915779
ECCENTRICITY   = .00113422
INCLINATION    = 82.5205
RA_OF_ASC_NODE = 126.1290
ARG_OF_PERICENTER = 192.5705
MEAN_ANOMALY   = 167.5253

EPHEMERIS_TYPE = 0
CLASSIFICATION_TYPE = U
NORAD_CAT_ID   = 19573
ELEMENT_SET_NO = 999
REV_AT_EPOCH   = 1812
BSTAR          = .31629119E-3
MEAN_MOTION_DOT = .8664E-4
MEAN_MOTION_DDOT = 0

CCSDS_OMM_VERS = 2.0
CREATION_DATE  = 
ORIGINATOR     = 

OBJECT_NAME    = SL-14 R/B
OBJECT_ID      = 1988-093B
CENTER_NAME    = EARTH
REF_FRAME      = TEME
TIME_SYSTEM    = UTC
MEAN_ELEMENT_THEORY = SGP/SGP4

EPOCH          = 2026-03-01T00:59:47.607936
MEAN_MOTION    = 14.85643750
ECCENTRICITY   = .00222273
INCLINATION    = 82.5288
RA_OF_ASC_NODE = 50.1632
ARG_OF_PERICENTER = 68.4643
MEAN_ANOMALY   = 354.6024

EPHEMERIS_TYPE = 0
CLASSIFICATION_TYPE = U
NORAD_CAT_ID   = 19574
ELEMENT_SET_NO = 999
REV_AT_EPOCH   = 99975
BSTAR          = .69411785E-4
MEAN_MOTION_DOT = .628E-5
MEAN_MOTION_DDOT = 0

CCSDS_OMM_VERS = 2.0
CREATION_DATE  = 
ORIGINATOR     = 

OBJECT_NAME    = SL-16 R/B
OBJECT_ID      = 1988-102B
CENTER_NAME    = EARTH
REF_FRAME      = TEME
TIME_SYSTEM    = UTC
MEAN_ELEMENT_THEORY = SGP/SGP4

EPOCH          = 2026-03-01T06:53:56.079168
MEAN_MOTION    = 14.16149579
ECCENTRICITY   = .0013439
INCLINATION    = 71.0000
RA_OF_ASC_NODE = 169.1746
ARG_OF_PERICENTER = 14.3809
MEAN_ANOMALY   = 345.7694

EPHEMERIS_TYPE = 0
CLASSIFICATION_TYPE = U
NORAD_CAT_ID   = 19650
ELEMENT_SET_NO = 999
REV_AT_EPOCH   = 92570
BSTAR          = -.64534835E-4
MEAN_MOTION_DOT = -.176E-5
MEAN_MOTION_DDOT = 0

CCSDS_OMM_VERS = 2.0
CREATION_DATE  = 
ORIGINATOR     = 

OBJECT_NAME    = INTERCOSMOS 24
OBJECT_ID      = 1989-080A
CENTER_NAME    = EARTH
REF_FRAME      = TEME
TIME_SYSTEM    = UTC
MEAN_ELEMENT_THEORY = SGP/SGP4

EPOCH          = 2026-03-01T05:22:55.315776
MEAN_MOTION    = 12.59542780
ECCENTRICITY   = .11868999
INCLINATION    = 82.6036
RA_OF_ASC_NODE = 109.9167
ARG_OF_PERICENTER = 312.4888
MEAN_ANOMALY   = 38.1632

EPHEMERIS_TYPE = 0
CLASSIFICATION_TYPE = U
NORAD_CAT_ID   = 20261
ELEMENT_SET_NO = 999
REV_AT_EPOCH   = 66573
BSTAR          = .21821268E-3
MEAN_MOTION_DOT = .736E-5
MEAN_MOTION_DDOT = 0

CCSDS_OMM_VERS = 2.0
CREATION_DATE  = 
ORIGINATOR     = 

OBJECT_NAME    = SL-14 R/B
OBJECT_ID      = 1989-080C
CENTER_NAME    = EARTH
REF_FRAME      = TEME
TIME_SYSTEM    = UTC
MEAN_ELEMENT_THEORY = SGP/SGP4

EPOCH          = 2026-03-01T07:31:50.087424
MEAN_MOTION    = 12.50480930
ECCENTRICITY   = .12302415
INCLINATION    = 82.5970
RA_OF_ASC_NODE = 178.5616
ARG_OF_PERICENTER = 203.8906
MEAN_ANOMALY   = 150.0110

EPHEMERIS_TYPE = 0
CLASSIFICATION_TYPE = U
NORAD_CAT_ID   = 20262
ELEMENT_SET_NO = 999
REV_AT_EPOCH   = 65910
BSTAR          = .21016569E-3
MEAN_MOTION_DOT = .706E-5
MEAN_MOTION_DDOT = 0

CCSDS_OMM_VERS = 2.0
CREATION_DATE  = 
ORIGINATOR     = 

OBJECT_NAME    = DELTA 1 R/B
OBJECT_ID      = 1989-089B
CENTER_NAME    = EARTH
REF_FRAME      = TEME
TIME_SYSTEM    = UTC
MEAN_ELEMENT_THEORY = SGP/SGP4

EPOCH          = 2026-03-01T03:16:54.837984
MEAN_MOTION    = 14.50654837
ECCENTRICITY   = .00699165
INCLINATION    = 97.0711
RA_OF_ASC_NODE = 268.9356
ARG_OF_PERICENTER = 148.6144
MEAN_ANOMALY   = 211.9255

EPHEMERIS_TYPE = 0
CLASSIFICATION_TYPE = U
NORAD_CAT_ID   = 20323
ELEMENT_SET_NO = 999
REV_AT_EPOCH   = 89449
BSTAR          = .108765E-3
MEAN_MOTION_DOT = .406E-5
MEAN_MOTION_DDOT = 0

CCSDS_OMM_VERS = 2.0
CREATION_DATE  = 
ORIGINATOR     = 

OBJECT_NAME    = ARIANE 40 R/B
OBJECT_ID      = 1990-005H
CENTER_NAME    = EARTH
REF_FRAME      = TEME
TIME_SYSTEM    = UTC
MEAN_ELEMENT_THEORY = SGP/SGP4

EPOCH          = 2026-03-01T03:03:03.457440
MEAN_MOTION    = 14.39863703
ECCENTRICITY   = .00093369
INCLINATION    = 98.3102
RA_OF_ASC_NODE = 121.0430
ARG_OF_PERICENTER = 225.3610
MEAN_ANOMALY   = 134.6818

EPHEMERIS_TYPE = 0
CLASSIFICATION_TYPE = U
NORAD_CAT_ID   = 20443
ELEMENT_SET_NO = 999
REV_AT_EPOCH   = 89157
BSTAR          = .10384882E-3
MEAN_MOTION_DOT = .284E-5
MEAN_MOTION_DDOT = 0

