COSMOS 1933             
1 18958U 88020A   26060.02263973  .00004924  00000+0  24156-3 0  9994
2 18958  82.5096 259.4893 0003160 214.8229 145.2799 15.17890569 48911
SL-3 R/B                
1 19046U 88032B   26060.23945163  .00006735  00000+0  31551-3 0  9996
2 19046  97.5172  43.5215 0024079 263.2553  96.5941 15.19786948 50828
SL-16 R/B               
1 19120U 88039B   26060.31339978  .00000176  00000+0  10610-3 0  9992
2 19120  71.0128  86.2611 0022259 346.7701  13.2837 14.19614893957197
COSMOS 1953             
1 19210U 88050A   26060.31112731  .00010302  00000+0  37129-3 0  9997
2 19210  82.5112 166.6702 0012145 149.6086 210.5860 15.28341477 36507
SL-8 R/B                
1 19257U 88053B   26060.31453597  .00000271  00000+0  96182-4 0  9998
2 19257  74.0471 127.9041 0021190 308.4746 117.9922 14.38909853975392
COSMOS 1975             
1 19573U 88093A   26060.27694154  .00008664  00000+0  31629-3 0  9992
2 19573  82.5205 126.1290 0011342 192.5705 167.5253 15.27915779 18124
SL-14 R/B               
1 19574U 88093B   26060.04152324  .00000628  00000+0  69412-4 0  9990
2 19574  82.5288  50.1632 0022227  68.4643 354.6024 14.85643750999750
SL-16 R/B               
1 19650U 88102B   26060.28745462 -.00000176  00000+0 -64535-4 0  9994
2 19650  71.0000 169.1746 0013439  14.3809 345.7694 14.16149579925708
INTERCOSMOS 24          
1 20261U 89080A   26060.22425134  .00000736  00000+0  21821-3 0  9995
2 20261  82.6036 109.9167 1186899 312.4888  38.1632 12.59542780665730
SL-14 R/B               
1 20262U 89080C   26060.31377416  .00000706  00000+0  21017-3 0  9999
2 20262  82.5970 178.5616 1230241 203.8906 150.0110 12.50480930659101
DELTA 1 R/B             
1 20323U 89089B   26060.13674581  .00000406  00000+0  10877-3 0  9998
2 20323  97.0711 268.9356 0069916 148.6144 211.9255 14.50654837894497
ARIANE 40 R/B           
1 20443U 90005H   26060.12712335  .00000284  00000+0  10385-3 0  9998
2 20443  98.3102 121.0430 0009336 225.3610 134.6818 14.39863703891574
